{"type": "FeatureCollection", "features": [ {"type": "Feature", "properties": {"norad_id": 34823, "name": "COSMOS 2251 DEB", "group": "cosmos-2251-debris", "lat": 62.34004364029079, "lon": 117.51895544747377, "alt_km": 719.7681797802916, "timestamp": "2025-12-22T04:03:39.563725+00:00", "meta": {"OBJECT_NAME": "COSMOS 2251 DEB", "OBJECT_ID": "1993-036ABN", "EPOCH": "2025-12-20T12:08:33.613440", "MEAN_MOTION": 14.5497594, "ECCENTRICITY": 0.01541862, "INCLINATION": 74.0426, "RA_OF_ASC_NODE": 87.5785, "ARG_OF_PERICENTER": 170.4185, "MEAN_ANOMALY": 189.9981, "EPHEMERIS_TYPE": 0, "CLASSIFICATION_TYPE": "U", "NORAD_CAT_ID": 34823, "ELEMENT_SET_NO": 999, "REV_AT_EPOCH": 88494, "BSTAR": 0.00040573854, "MEAN_MOTION_DOT": 2.017e-05, "MEAN_MOTION_DDOT": 0}, "tle": {"line1": "1 34823U 93036ABN 25354.50594460  .00002017  00000+0  40574-3 0  9995", "line2": "2 34823  74.0426  87.5785 0154186 170.4185 189.9981 14.54975940884942"}}, "geometry": {"type": "Point", "coordinates": [117.51895544747377, 62.34004364029079]}}, {"type": "Feature", "properties": {"norad_id": 34845, "name": "COSMOS 2251 DEB", "group": "cosmos-2251-debris", "lat": 73.97462191237605, "lon": -143.4003142820268, "alt_km": 746.7254012345184, "timestamp": "2025-12-22T04:03:39.563735+00:00", "meta": {"OBJECT_NAME": "COSMOS 2251 DEB", "OBJECT_ID": "1993-036ABP", "EPOCH": "2025-12-19T17:31:51.884832", "MEAN_MOTION": 14.45872035, "ECCENTRICITY": 0.00225932, "INCLINATION": 74.0244, "RA_OF_ASC_NODE": 135.3011, "ARG_OF_PERICENTER": 295.1391, "MEAN_ANOMALY": 64.7423, "EPHEMERIS_TYPE": 0, "CLASSIFICATION_TYPE": "U", "NORAD_CAT_ID": 34845, "ELEMENT_SET_NO": 999, "REV_AT_EPOCH": 87567, "BSTAR": 0.00020260782, "MEAN_MOTION_DOT": 6.95e-06, "MEAN_MOTION_DDOT": 0}, "tle": {"line1": "1 34845U 93036ABP 25353.73046163  .00000695  00000+0  20261-3 0  9996", "line2": "2 34845  74.0244 135.3011 0022593 295.1391  64.7423 14.45872035875670"}}, "geometry": {"type": "Point", "coordinates": [-143.4003142820268, 73.97462191237605]}}, {"type": "Feature", "properties": {"norad_id": 34846, "name": "COSMOS 2251 DEB", "group": "cosmos-2251-debris", "lat": 68.06052221349516, "lon": -70.54809106477423, "alt_km": 738.4316957743404, "timestamp": "2025-12-22T04:03:39.563745+00:00", "meta": {"OBJECT_NAME": "COSMOS 2251 DEB", "OBJECT_ID": "1993-036ABQ", "EPOCH": "2025-12-21T11:07:37.718400", "MEAN_MOTION": 14.47259356, "ECCENTRICITY": 0.00262187, "INCLINATION": 74.0304, "RA_OF_ASC_NODE": 245.4609, "ARG_OF_PERICENTER": 310.7741, "MEAN_ANOMALY": 49.1142, "EPHEMERIS_TYPE": 0, "CLASSIFICATION_TYPE": "U", "NORAD_CAT_ID": 34846, "ELEMENT_SET_NO": 999, "REV_AT_EPOCH": 87530, "BSTAR": 0.0005506376, "MEAN_MOTION_DOT": 1.995e-05, "MEAN_MOTION_DDOT": 0}, "tle": {"line1": "1 34846U 93036ABQ 25355.46363100  .00001995  00000+0  55064-3 0  9995", "line2": "2 34846  74.0304 245.4609 0026218 310.7741  49.1142 14.47259356875307"}}, "geometry": {"type": "Point", "coordinates": [-70.54809106477423, 68.06052221349516]}}, {"type": "Feature", "properties": {"norad_id": 34852, "name": "COSMOS 2251 DEB", "group": "cosmos-2251-debris", "lat": 25.20460222007999, "lon": 57.886097457746445, "alt_km": 778.7876232673898, "timestamp": "2025-12-22T04:03:39.563755+00:00", "meta": {"OBJECT_NAME": "COSMOS 2251 DEB", "OBJECT_ID": "1993-036ABW", "EPOCH": "2025-12-21T10:38:26.088000", "MEAN_MOTION": 14.37011249, "ECCENTRICITY": 0.00165692, "INCLINATION": 74.0325, "RA_OF_ASC_NODE": 246.9652, "ARG_OF_PERICENTER": 348.3014, "MEAN_ANOMALY": 11.7752, "EPHEMERIS_TYPE": 0, "CLASSIFICATION_TYPE": "U", "NORAD_CAT_ID": 34852, "ELEMENT_SET_NO": 999, "REV_AT_EPOCH": 87659, "BSTAR": 9.6957767e-05, "MEAN_MOTION_DOT": 2.62e-06, "MEAN_MOTION_DDOT": 0}, "tle": {"line1": "1 34852U 93036ABW 25355.44335750  .00000262  00000+0  96958-4 0  9994", "line2": "2 34852  74.0325 246.9652 0016569 348.3014  11.7752 14.37011249876599"}}, "geometry": {"type": "Point", "coordinates": [57.886097457746445, 25.20460222007999]}}, {"type": "Feature", "properties": {"norad_id": 34854, "name": "COSMOS 2251 DEB", "group": "cosmos-2251-debris", "lat": -35.46442707173112, "lon": 128.32698393716188, "alt_km": 632.0009693951542, "timestamp": "2025-12-22T04:03:39.563765+00:00", "meta": {"OBJECT_NAME": "COSMOS 2251 DEB", "OBJECT_ID": "1993-036ABY", "EPOCH": "2025-12-20T16:27:30.286080", "MEAN_MOTION": 14.76695376, "ECCENTRICITY": 0.00660109, "INCLINATION": 74.029, "RA_OF_ASC_NODE": 143.0056, "ARG_OF_PERICENTER": 253.0888, "MEAN_ANOMALY": 106.3042, "EPHEMERIS_TYPE": 0, "CLASSIFICATION_TYPE": "U", "NORAD_CAT_ID": 34854, "ELEMENT_SET_NO": 999, "REV_AT_EPOCH": 71999, "BSTAR": 0.00047616561, "MEAN_MOTION_DOT": 3.419e-05, "MEAN_MOTION_DDOT": 0}, "tle": {"line1": "1 34854U 93036ABY 25354.68576720  .00003419  00000+0  47617-3 0  9999", "line2": "2 34854  74.0290 143.0056 0066010 253.0888 106.3042 14.76695376719999"}}, "geometry": {"type": "Point", "coordinates": [128.32698393716188, -35.46442707173112]}}, {"type": "Feature", "properties": {"norad_id": 34856, "name": "COSMOS 2251 DEB", "group": "cosmos-2251-debris", "lat": -36.94803927538587, "lon": 52.991118505481836, "alt_km": 563.7446561095203, "timestamp": "2025-12-22T04:03:39.563775+00:00", "meta": {"OBJECT_NAME": "COSMOS 2251 DEB", "OBJECT_ID": "1993-036ACA", "EPOCH": "2025-12-21T06:10:09.463008", "MEAN_MOTION": 15.06460238, "ECCENTRICITY": 0.0031595, "INCLINATION": 73.9992, "RA_OF_ASC_NODE": 67.3313, "ARG_OF_PERICENTER": 203.826, "MEAN_ANOMALY": 212.4646, "EPHEMERIS_TYPE": 0, "CLASSIFICATION_TYPE": "U", "NORAD_CAT_ID": 34856, "ELEMENT_SET_NO": 999, "REV_AT_EPOCH": 89240, "BSTAR": 0.0012375, "MEAN_MOTION_DOT": 0.00018479, "MEAN_MOTION_DDOT": 0}, "tle": {"line1": "1 34856U 93036ACA 25355.25705397  .00018479  00000+0  12375-2 0  9993", "line2": "2 34856  73.9992  67.3313 0031595 203.8260 212.4646 15.06460238892407"}}, "geometry": {"type": "Point", "coordinates": [52.991118505481836, -36.94803927538587]}}, {"type": "Feature", "properties": {"norad_id": 34857, "name": "COSMOS 2251 DEB", "group": "cosmos-2251-debris", "lat": 15.24130852887114, "lon": -95.63519129986192, "alt_km": 665.4644797326473, "timestamp": "2025-12-22T04:03:39.563785+00:00", "meta": {"OBJECT_NAME": "COSMOS 2251 DEB", "OBJECT_ID": "1993-036ACB", "EPOCH": "2025-12-21T06:02:52.653120", "MEAN_MOTION": 14.5896988, "ECCENTRICITY": 0.0065499, "INCLINATION": 74.0163, "RA_OF_ASC_NODE": 90.5928, "ARG_OF_PERICENTER": 213.4962, "MEAN_ANOMALY": 175.5877, "EPHEMERIS_TYPE": 0, "CLASSIFICATION_TYPE": "U", "NORAD_CAT_ID": 34857, "ELEMENT_SET_NO": 999, "REV_AT_EPOCH": 88025, "BSTAR": 0.00077727, "MEAN_MOTION_DOT": 3.728e-05, "MEAN_MOTION_DDOT": 0}, "tle": {"line1": "1 34857U 93036ACB 25355.25199830  .00003728  00000+0  77727-3 0  9997", "line2": "2 34857  74.0163  90.5928 0065499 213.4962 175.5877 14.58969880880254"}}, "geometry": {"type": "Point", "coordinates": [-95.63519129986192, 15.24130852887114]}}, {"type": "Feature", "properties": {"norad_id": 34859, "name": "COSMOS 2251 DEB", "group": "cosmos-2251-debris", "lat": -51.431346666617394, "lon": 161.07271740937273, "alt_km": 525.5069424543217, "timestamp": "2025-12-22T04:03:39.563794+00:00", "meta": {"OBJECT_NAME": "COSMOS 2251 DEB", "OBJECT_ID": "1993-036ACD", "EPOCH": "2025-12-20T00:39:03.765024", "MEAN_MOTION": 15.15832734, "ECCENTRICITY": 0.00020914, "INCLINATION": 74.0278, "RA_OF_ASC_NODE": 324.4843, "ARG_OF_PERICENTER": 20.5726, "MEAN_ANOMALY": 48.6407, "EPHEMERIS_TYPE": 0, "CLASSIFICATION_TYPE": "U", "NORAD_CAT_ID": 34859, "ELEMENT_SET_NO": 999, "REV_AT_EPOCH": 88469, "BSTAR": 0.0027292363, "MEAN_MOTION_DOT": 0.00052535, "MEAN_MOTION_DDOT": 0}, "tle": {"line1": "1 34859U 93036ACD 25354.02712691  .00052535  00000+0  27292-2 0  9990", "line2": "2 34859  74.0278 324.4843 0002091  20.5726  48.6407 15.15832734884694"}}, "geometry": {"type": "Point", "coordinates": [161.07271740937273, -51.431346666617394]}}, {"type": "Feature", "properties": {"norad_id": 34861, "name": "COSMOS 2251 DEB", "group": "cosmos-2251-debris", "lat": 66.79158426885411, "lon": 73.52654239140826, "alt_km": 546.9884301410084, "timestamp": "2025-12-22T04:03:39.563804+00:00", "meta": {"OBJECT_NAME": "COSMOS 2251 DEB", "OBJECT_ID": "1993-036ACF", "EPOCH": "2025-12-21T20:31:48.902304", "MEAN_MOTION": 15.03073934, "ECCENTRICITY": 0.0008148, "INCLINATION": 74.0179, "RA_OF_ASC_NODE": 32.222, "ARG_OF_PERICENTER": 22.2074, "MEAN_ANOMALY": 153.5336, "EPHEMERIS_TYPE": 0, "CLASSIFICATION_TYPE": "U", "NORAD_CAT_ID": 34861, "ELEMENT_SET_NO": 999, "REV_AT_EPOCH": 88229, "BSTAR": 0.0019691, "MEAN_MOTION_DOT": 0.00026634, "MEAN_MOTION_DDOT": 0}, "tle": {"line1": "1 34861U 93036ACF 25355.85542711  .00026634  00000+0  19691-2 0  9994", "line2": "2 34861  74.0179  32.2220 0008148  22.2074 153.5336 15.03073934882291"}}, "geometry": {"type": "Point", "coordinates": [73.52654239140826, 66.79158426885411]}}, {"type": "Feature", "properties": {"norad_id": 34874, "name": "COSMOS 2251 DEB", "group": "cosmos-2251-debris", "lat": -65.81625188193583, "lon": 16.86034966306657, "alt_km": 808.9239762647976, "timestamp": "2025-12-22T04:03:39.563814+00:00", "meta": {"OBJECT_NAME": "COSMOS 2251 DEB", "OBJECT_ID": "1993-036ACM", "EPOCH": "2025-12-19T15:14:26.431296", "MEAN_MOTION": 14.36339936, "ECCENTRICITY": 0.0050622, "INCLINATION": 74.0394, "RA_OF_ASC_NODE": 61.1016, "ARG_OF_PERICENTER": 84.2082, "MEAN_ANOMALY": 65.9606, "EPHEMERIS_TYPE": 0, "CLASSIFICATION_TYPE": "U", "NORAD_CAT_ID": 34874, "ELEMENT_SET_NO": 999, "REV_AT_EPOCH": 87143, "BSTAR": 0.00053501, "MEAN_MOTION_DOT": 1.563e-05, "MEAN_MOTION_DDOT": 0}, "tle": {"line1": "1 34874U 93036ACM 25353.63502814  .00001563  00000+0  53501-3 0  9995", "line2": "2 34874  74.0394  61.1016 0050622  84.2082  65.9606 14.36339936871431"}}, "geometry": {"type": "Point", "coordinates": [16.86034966306657, -65.81625188193583]}}]}